OBJECT_NAME,OBJECT_ID,EPOCH,MEAN_MOTION,ECCENTRICITY,INCLINATION,RA_OF_ASC_NODE,ARG_OF_PERICENTER,MEAN_ANOMALY,EPHEMERIS_TYPE,CLASSIFICATION_TYPE,NORAD_CAT_ID,ELEMENT_SET_NO,REV_AT_EPOCH,BSTAR,MEAN_MOTION_DOT,MEAN_MOTION_DDOT
LEMUR-2-CELIJO-SB-PK,2025-276DW,2026-06-25T04:11:51.512928,15.00063981,.00082478,97.5235,246.6902,113.4299,246.7793,0,U,66781,999,2382,.58444047E-3,.7231E-4,0
LEMUR-2-FINNIAN,2025-276DX,2026-06-24T03:35:10.588704,15.00446823,.00087011,97.5309,245.9209,68.8843,291.3311,0,U,66782,999,2104,.3676334E-3,.4572E-4,0
LEMUR-2-STARLIGHT,2025-276DY,2026-06-25T04:19:09.075360,14.99120149,.0014772,97.5246,246.5457,105.2884,254.9974,0,U,66783,999,3139,.60142829E-3,.7273E-4,0
LEMUR-2-TARTIFLETTE,2025-276DZ,2026-06-25T04:16:47.109792,14.99135685,.00137259,97.5250,246.5516,112.1616,248.1065,0,U,66784,999,3139,.50060458E-3,.6043E-4,0
LEMUR-2-VUKASIN,2025-276EA,2026-06-25T03:57:41.341248,15.00420110,.00053442,97.5300,246.8556,103.9516,256.2303,0,U,66785,999,3134,.11906577E-3,.144E-4,0
LEMUR-2-HOTSPUR-TOM,2025-276EB,2026-06-25T04:06:52.549056,14.99035144,.00148827,97.5247,246.5245,104.5286,255.7590,0,U,66786,999,3132,.53248844E-3,.6418E-4,0
LEMUR-2-MYRA,2025-276EC,2026-06-25T03:07:47.240832,15.00347696,.00175196,97.5219,246.7508,115.7874,244.5160,0,U,66787,999,3140,.66072298E-3,.8265E-4,0
LEMUR-2 FIKRETDENGIZ,2026-004A,2026-06-25T00:00:19.723392,14.88374851,.00104839,97.8016,174.4381,111.0764,249.1575,0,U,67363,999,2444,.45755318E-3,.4188E-4,0
TWILIGHT-1 OBJECT B,2026-004B,2026-06-25T05:30:53.390304,14.87727880,.00102395,97.8064,174.6758,101.7744,258.4622,0,U,67364,999,2448,.20328813E-3,.18E-4,0
LEMUR-2-MARIO-SOUSA,2026-004C,2026-06-25T06:02:28.620096,14.88571933,.00100732,97.7987,174.6815,111.2798,248.9495,0,U,67365,999,2449,.50632935E-3,.4664E-4,0
LEMUR-2-SONNENBLUME,2026-004E,2026-06-24T10:40:02.957952,14.88347783,.00095698,97.7985,173.8683,114.8660,245.3553,0,U,67367,999,2437,.24082499E-3,.2176E-4,0
LEMUR-2-WOBLER,2026-004F,2026-06-25T07:27:35.438976,14.88567071,.0009954,97.8040,174.8514,103.5567,256.6759,0,U,67368,999,2450,.40361041E-3,.3705E-4,0
LEMUR-2-GRAM-E-SUE,2026-004H,2026-06-25T05:37:44.737248,14.88503475,.00086842,97.7975,174.6616,114.0103,246.2024,0,U,67370,999,2449,.2516475E-3,.2285E-4,0
LEMUR-2-KATIE,2026-004AA,2026-06-25T06:43:48.876384,14.90093964,.00047647,97.8034,175.1923,76.4507,283.7242,0,U,67387,999,2451,.42236992E-3,.4028E-4,0
LEMUR-2-HCS-BAZUS,2026-004AB,2026-06-24T22:38:43.214208,14.90136625,.00042622,97.8022,174.8399,75.6154,284.5536,0,U,67388,999,2446,.61912419E-3,.5938E-4,0
